{
  "links" : {
    "next" : "https://api.nasa.gov/neo/rest/v1/feed?start_date=2009-02-16&end_date=2009-02-16&detailed=true&api_key=t0TVs3DtDT2H8Oy2Zy8m2eVrNsAVKAexjcZXUckd",
    "prev" : "https://api.nasa.gov/neo/rest/v1/feed?start_date=2009-02-14&end_date=2009-02-14&detailed=true&api_key=t0TVs3DtDT2H8Oy2Zy8m2eVrNsAVKAexjcZXUckd",
    "self" : "https://api.nasa.gov/neo/rest/v1/feed?start_date=2009-02-15&end_date=2009-02-15&detailed=true&api_key=t0TVs3DtDT2H8Oy2Zy8m2eVrNsAVKAexjcZXUckd"
  },
  "element_count" : 6,
  "near_earth_objects" : {
    "2009-02-15" : [ {
      "links" : {
        "self" : "https://api.nasa.gov/neo/rest/v1/neo/3454730?api_key=t0TVs3DtDT2H8Oy2Zy8m2eVrNsAVKAexjcZXUckd"
      },
      "neo_reference_id" : "3454730",
      "name" : "(2009 FT4)",
      "nasa_jpl_url" : "http://ssd.jpl.nasa.gov/sbdb.cgi?sstr=3454730",
      "absolute_magnitude_h" : 20.7,
      "estimated_diameter" : {
        "kilometers" : {
          "estimated_diameter_min" : 0.1925550782,
          "estimated_diameter_max" : 0.4305662442
        },
        "meters" : {
          "estimated_diameter_min" : 192.5550781879,
          "estimated_diameter_max" : 430.566244241
        },
        "miles" : {
          "estimated_diameter_min" : 0.1196481415,
          "estimated_diameter_max" : 0.2675413778
        },
        "feet" : {
          "estimated_diameter_min" : 631.7424027221,
          "estimated_diameter_max" : 1412.6189567557
        }
      },
      "is_potentially_hazardous_asteroid" : false,
      "close_approach_data" : [ {
        "close_approach_date" : "2009-02-15",
        "epoch_date_close_approach" : 1234684800000,
        "relative_velocity" : {
          "kilometers_per_second" : "12.2628030086",
          "kilometers_per_hour" : "44146.0908309586",
          "miles_per_hour" : "27430.6640499364"
        },
        "miss_distance" : {
          "astronomical" : "0.3901327393",
          "lunar" : "151.7616271973",
          "kilometers" : "58363024",
          "miles" : "36265104"
        },
        "orbiting_body" : "Earth"
      } ],
      "orbital_data" : {
        "orbit_id" : "8",
        "orbit_determination_date" : "2017-04-06 09:00:59",
        "orbit_uncertainty" : "7",
        "minimum_orbit_intersection" : ".256945",
        "jupiter_tisserand_invariant" : "3.102",
        "epoch_osculation" : "2458000.5",
        "eccentricity" : ".54817718609299",
        "semi_major_axis" : "2.675079132385158",
        "inclination" : "15.21096083273349",
        "ascending_node_longitude" : "162.5879935467457",
        "orbital_period" : "1598.097886698392",
        "perihelion_distance" : "1.208661781018185",
        "perihelion_argument" : "325.2390539965164",
        "aphelion_distance" : "4.141496483752131",
        "perihelion_time" : "2458068.929645404633",
        "mean_anomaly" : "344.5850041160105",
        "mean_motion" : ".2252678030528818",
        "equinox" : "J2000"
      }
    }, {
      "links" : {
        "self" : "https://api.nasa.gov/neo/rest/v1/neo/3557537?api_key=t0TVs3DtDT2H8Oy2Zy8m2eVrNsAVKAexjcZXUckd"
      },
      "neo_reference_id" : "3557537",
      "name" : "(2011 CM50)",
      "nasa_jpl_url" : "http://ssd.jpl.nasa.gov/sbdb.cgi?sstr=3557537",
      "absolute_magnitude_h" : 22.9,
      "estimated_diameter" : {
        "kilometers" : {
          "estimated_diameter_min" : 0.0699125232,
          "estimated_diameter_max" : 0.1563291544
        },
        "meters" : {
          "estimated_diameter_min" : 69.9125232246,
          "estimated_diameter_max" : 156.3291544087
        },
        "miles" : {
          "estimated_diameter_min" : 0.0434416145,
          "estimated_diameter_max" : 0.097138403
        },
        "feet" : {
          "estimated_diameter_min" : 229.3718026961,
          "estimated_diameter_max" : 512.8909429502
        }
      },
      "is_potentially_hazardous_asteroid" : false,
      "close_approach_data" : [ {
        "close_approach_date" : "2009-02-15",
        "epoch_date_close_approach" : 1234684800000,
        "relative_velocity" : {
          "kilometers_per_second" : "10.9258235298",
          "kilometers_per_hour" : "39332.9647072382",
          "miles_per_hour" : "24439.9746537837"
        },
        "miss_distance" : {
          "astronomical" : "0.2613181835",
          "lunar" : "101.6527709961",
          "kilometers" : "39092644",
          "miles" : "24291042"
        },
        "orbiting_body" : "Earth"
      } ],
      "orbital_data" : {
        "orbit_id" : "10",
        "orbit_determination_date" : "2017-04-06 08:54:26",
        "orbit_uncertainty" : "8",
        "minimum_orbit_intersection" : ".180713",
        "jupiter_tisserand_invariant" : "4.310",
        "epoch_osculation" : "2455612.5",
        "eccentricity" : ".2564159254934407",
        "semi_major_axis" : "1.570912992072512",
        "inclination" : "20.01963643338339",
        "ascending_node_longitude" : "328.2951390035994",
        "orbital_period" : "719.1618221476768",
        "perihelion_distance" : "1.168105883340569",
        "perihelion_argument" : "186.1367110396493",
        "aphelion_distance" : "1.973720100804456",
        "perihelion_time" : "2455616.907083522322",
        "mean_anomaly" : "357.7938900270069",
        "mean_motion" : ".5005827463489512",
        "equinox" : "J2000"
      }
    }, {
      "links" : {
        "self" : "https://api.nasa.gov/neo/rest/v1/neo/3352549?api_key=t0TVs3DtDT2H8Oy2Zy8m2eVrNsAVKAexjcZXUckd"
      },
      "neo_reference_id" : "3352549",
      "name" : "(2006 UQ17)",
      "nasa_jpl_url" : "http://ssd.jpl.nasa.gov/sbdb.cgi?sstr=3352549",
      "absolute_magnitude_h" : 21.9,
      "estimated_diameter" : {
        "kilometers" : {
          "estimated_diameter_min" : 0.1108038821,
          "estimated_diameter_max" : 0.2477650126
        },
        "meters" : {
          "estimated_diameter_min" : 110.8038821264,
          "estimated_diameter_max" : 247.7650126055
        },
        "miles" : {
          "estimated_diameter_min" : 0.068850319,
          "estimated_diameter_max" : 0.1539539936
        },
        "feet" : {
          "estimated_diameter_min" : 363.5298086356,
          "estimated_diameter_max" : 812.8773639568
        }
      },
      "is_potentially_hazardous_asteroid" : true,
      "close_approach_data" : [ {
        "close_approach_date" : "2009-02-15",
        "epoch_date_close_approach" : 1234684800000,
        "relative_velocity" : {
          "kilometers_per_second" : "18.0794214947",
          "kilometers_per_hour" : "65085.9173809088",
          "miles_per_hour" : "40441.8579414875"
        },
        "miss_distance" : {
          "astronomical" : "0.4360828141",
          "lunar" : "169.63621521",
          "kilometers" : "65237060",
          "miles" : "40536428"
        },
        "orbiting_body" : "Earth"
      } ],
      "orbital_data" : {
        "orbit_id" : "85",
        "orbit_determination_date" : "2017-04-06 09:07:50",
        "orbit_uncertainty" : "1",
        "minimum_orbit_intersection" : ".0234636",
        "jupiter_tisserand_invariant" : "4.237",
        "epoch_osculation" : "2458000.5",
        "eccentricity" : ".3807958275578264",
        "semi_major_axis" : "1.623702239017111",
        "inclination" : "1.743665917998124",
        "ascending_node_longitude" : "82.11172486879722",
        "orbital_period" : "755.7149455274648",
        "perihelion_distance" : "1.005403201203094",
        "perihelion_argument" : "10.29946119997619",
        "aphelion_distance" : "2.242001276831127",
        "perihelion_time" : "2457873.992256586149",
        "mean_anomaly" : "60.26450568236255",
        "mean_motion" : ".4763700944788535",
        "equinox" : "J2000"
      }
    } ]
  }
}